{
  "type": "FeatureCollection",
  "features": [
    {
      "type": "Feature",
      "properties": {
        "norad_id": 57400,
        "name": "TIANMU-1 08",
        "group": "weather",
        "lat": 3.9325712647448032,
        "lon": -151.253246789489,
        "alt_km": 482.93152282122446,
        "timestamp": "2025-12-04T09:47:37.166354+00:00",
        "meta_object_name": "TIANMU-1 08",
        "meta_object_id": "2023-101B",
        "meta_epoch": "2025-12-03T23:35:44.916864",
        "meta_mean_motion": 15.27855608,
        "meta_eccentricity": 0.00074842,
        "meta_inclination": 97.2881,
        "meta_ra_of_asc_node": 27.8272,
        "meta_arg_of_pericenter": 108.2888,
        "meta_mean_anomaly": 251.9167,
        "meta_ephemeris_type": 0,
        "meta_classification_type": "U",
        "meta_norad_cat_id": 57400,
        "meta_element_set_no": 999,
        "meta_rev_at_epoch": 13181,
        "meta_bstar": 0.00051067548,
        "meta_mean_motion_dot": 0.00013838,
        "meta_mean_motion_ddot": 0,
        "tle_line1": "1 57400U 23101B   25337.98315876  .00013838  00000+0  51068-3 0  9995",
        "tle_line2": "2 57400  97.2881  27.8272 0007484 108.2888 251.9167 15.27855608131811"
      },
      "geometry": {
        "type": "Point",
        "coordinates": [
          -151.253246789489,
          3.9325712647448032
        ]
      }
    },
    {
      "type": "Feature",
      "properties": {
        "norad_id": 57401,
        "name": "TIANMU-1 09",
        "group": "weather",
        "lat": -66.67607694968301,
        "lon": -169.49612297501446,
        "alt_km": 493.018055217286,
        "timestamp": "2025-12-04T09:47:37.166364+00:00",
        "meta_object_name": "TIANMU-1 09",
        "meta_object_id": "2023-101C",
        "meta_epoch": "2025-12-03T23:16:55.972128",
        "meta_mean_motion": 15.27877957,
        "meta_eccentricity": 0.00067461,
        "meta_inclination": 97.2838,
        "meta_ra_of_asc_node": 27.3325,
        "meta_arg_of_pericenter": 107.7104,
        "meta_mean_anomaly": 252.4873,
        "meta_ephemeris_type": 0,
        "meta_classification_type": "U",
        "meta_norad_cat_id": 57401,
        "meta_element_set_no": 999,
        "meta_rev_at_epoch": 13181,
        "meta_bstar": 0.00055068575,
        "meta_mean_motion_dot": 0.00014938,
        "meta_mean_motion_ddot": 0,
        "tle_line1": "1 57401U 23101C   25337.97009227  .00014938  00000+0  55069-3 0  9992",
        "tle_line2": "2 57401  97.2838  27.3325 0006746 107.7104 252.4873 15.27877957131814"
      },
      "geometry": {
        "type": "Point",
        "coordinates": [
          -169.49612297501446,
          -66.67607694968301
        ]
      }
    },
    {
      "type": "Feature",
      "properties": {
        "norad_id": 57402,
        "name": "TIANMU-1 10",
        "group": "weather",
        "lat": 58.96880599270045,
        "lon": 16.312098934267084,
        "alt_km": 472.52377784265354,
        "timestamp": "2025-12-04T09:47:37.166375+00:00",
        "meta_object_name": "TIANMU-1 10",
        "meta_object_id": "2023-101D",
        "meta_epoch": "2025-12-03T22:31:49.360800",
        "meta_mean_motion": 15.27868404,
        "meta_eccentricity": 0.00085245,
        "meta_inclination": 97.292,
        "meta_ra_of_asc_node": 28.1424,
        "meta_arg_of_pericenter": 108.8708,
        "meta_mean_anomaly": 251.3456,
        "meta_ephemeris_type": 0,
        "meta_classification_type": "U",
        "meta_norad_cat_id": 57402,
        "meta_element_set_no": 999,
        "meta_rev_at_epoch": 13180,
        "meta_bstar": 0.00053267873,
        "meta_mean_motion_dot": 0.00014448,
        "meta_mean_motion_ddot": 0,
        "tle_line1": "1 57402U 23101D   25337.93876575  .00014448  00000+0  53268-3 0  9992",
        "tle_line2": "2 57402  97.2920  28.1424 0008524 108.8708 251.3456 15.27868404131805"
      },
      "geometry": {
        "type": "Point",
        "coordinates": [
          16.312098934267084,
          58.96880599270045
        ]
      }
    },
    {
      "type": "Feature",
      "properties": {
        "norad_id": 57490,
        "name": "FENGYUN 3F",
        "group": "weather",
        "lat": -43.45488967339248,
        "lon": 55.186471054678165,
        "alt_km": 832.658011931936,
        "timestamp": "2025-12-04T09:47:37.166385+00:00",
        "meta_object_name": "FENGYUN 3F",
        "meta_object_id": "2023-111A",
        "meta_epoch": "2025-12-03T22:09:44.498880",
        "meta_mean_motion": 14.19889974,
        "meta_eccentricity": 6.864e-05,
        "meta_inclination": 98.7095,
        "meta_ra_of_asc_node": 46.3587,
        "meta_arg_of_pericenter": 87.1343,
        "meta_mean_anomaly": 272.9912,
        "meta_ephemeris_type": 0,
        "meta_classification_type": "U",
        "meta_norad_cat_id": 57490,
        "meta_element_set_no": 999,
        "meta_rev_at_epoch": 12115,
        "meta_bstar": 0.00011355019,
        "meta_mean_motion_dot": 1.97e-06,
        "meta_mean_motion_ddot": 0,
        "tle_line1": "1 57490U 23111A   25337.92343170  .00000197  00000+0  11355-3 0  9996",
        "tle_line2": "2 57490  98.7095  46.3587 0000686  87.1343 272.9912 14.19889974121156"
      },
      "geometry": {
        "type": "Point",
        "coordinates": [
          55.186471054678165,
          -43.45488967339248
        ]
      }
    },
    {
      "type": "Feature",
      "properties": {
        "norad_id": 58584,
        "name": "ARKTIKA-M 2",
        "group": "weather",
        "lat": 40.11279707039885,
        "lon": -159.01680616133564,
        "alt_km": 22339.35189362692,
        "timestamp": "2025-12-04T09:47:37.166397+00:00",
        "meta_object_name": "ARKTIKA-M 2",
        "meta_object_id": "2023-198A",
        "meta_epoch": "2025-12-03T08:34:19.284960",
        "meta_mean_motion": 2.00605176,
        "meta_eccentricity": 0.68642509,
        "meta_inclination": 63.2223,
        "meta_ra_of_asc_node": 175.9121,
        "meta_arg_of_pericenter": 268.1397,
        "meta_mean_anomaly": 18.842,
        "meta_ephemeris_type": 0,
        "meta_classification_type": "U",
        "meta_norad_cat_id": 58584,
        "meta_element_set_no": 999,
        "meta_rev_at_epoch": 1439,
        "meta_bstar": 0,
        "meta_mean_motion_dot": 2.24e-06,
        "meta_mean_motion_ddot": 0,
        "tle_line1": "1 58584U 23198A   25337.35716765  .00000224  00000+0  00000+0 0  9999",
        "tle_line2": "2 58584  63.2223 175.9121 6864250 268.1397  18.8420  2.00605176 14390"
      },
      "geometry": {
        "type": "Point",
        "coordinates": [
          -159.01680616133564,
          40.11279707039885
        ]
      }
    },
    {
      "type": "Feature",
      "properties": {
        "norad_id": 58645,
        "name": "TIANMU-1 11",
        "group": "weather",
        "lat": -17.42824089793185,
        "lon": 0.505047223493585,
        "alt_km": 491.4810793976303,
        "timestamp": "2025-12-04T09:47:37.166409+00:00",
        "meta_object_name": "TIANMU-1 11",
        "meta_object_id": "2023-205A",
        "meta_epoch": "2025-12-04T00:25:05.814624",
        "meta_mean_motion": 15.24431871,
        "meta_eccentricity": 0.00087827,
        "meta_inclination": 97.3609,
        "meta_ra_of_asc_node": 357.7955,
        "meta_arg_of_pericenter": 344.6679,
        "meta_mean_anomaly": 15.4292,
        "meta_ephemeris_type": 0,
        "meta_classification_type": "U",
        "meta_norad_cat_id": 58645,
        "meta_element_set_no": 999,
        "meta_rev_at_epoch": 10776,
        "meta_bstar": 0.00047697898,
        "meta_mean_motion_dot": 0.00011651,
        "meta_mean_motion_ddot": 0,
        "tle_line1": "1 58645U 23205A   25338.01742841  .00011651  00000+0  47698-3 0  9998",
        "tle_line2": "2 58645  97.3609 357.7955 0008782 344.6679  15.4292 15.24431871107769"
      },
      "geometry": {
        "type": "Point",
        "coordinates": [
          0.505047223493585,
          -17.42824089793185
        ]
      }
    },
    {
      "type": "Feature",
      "properties": {
        "norad_id": 58646,
        "name": "TIANMU-1 12",
        "group": "weather",
        "lat": -17.801099329207183,
        "lon": 175.60887793060158,
        "alt_km": 500.80124318825074,
        "timestamp": "2025-12-04T09:47:37.166419+00:00",
        "meta_object_name": "TIANMU-1 12",
        "meta_object_id": "2023-205B",
        "meta_epoch": "2025-12-03T23:28:31.077408",
        "meta_mean_motion": 15.24344811,
        "meta_eccentricity": 0.00066142,
        "meta_inclination": 97.3597,
        "meta_ra_of_asc_node": 357.5652,
        "meta_arg_of_pericenter": 330.5443,
        "meta_mean_anomaly": 29.5421,
        "meta_ephemeris_type": 0,
        "meta_classification_type": "U",
        "meta_norad_cat_id": 58646,
        "meta_element_set_no": 999,
        "meta_rev_at_epoch": 10774,
        "meta_bstar": 0.00047843524,
        "meta_mean_motion_dot": 0.00011652,
        "meta_mean_motion_ddot": 0,
        "tle_line1": "1 58646U 23205B   25337.97813747  .00011652  00000+0  47844-3 0  9991",
        "tle_line2": "2 58646  97.3597 357.5652 0006614 330.5443  29.5421 15.24344811107748"
      },
      "geometry": {
        "type": "Point",
        "coordinates": [
          175.60887793060158,
          -17.801099329207183
        ]
      }
    }
  ]
}